{"type": "FeatureCollection", "features": [{"type": "Feature", "properties": {"norad_id": 50032, "name": "COSMOS 1408 DEB", "group": "cosmos-1408-debris", "lat": -15.39641150517064, "lon": 51.6972298806175, "alt_km": 443.6112648239823, "timestamp": "2025-12-17T09:00:17.418850+00:00", "meta": {"OBJECT_NAME": "COSMOS 1408 DEB", "OBJECT_ID": "1982-092RU", "EPOCH": "2025-12-16T22:11:46.882752", "MEAN_MOTION": 15.45736909, "ECCENTRICITY": 0.00156434, "INCLINATION": 82.5646, "RA_OF_ASC_NODE": 54.2198, "ARG_OF_PERICENTER": 192.7559, "MEAN_ANOMALY": 167.3297, "EPHEMERIS_TYPE": 0, "CLASSIFICATION_TYPE": "U", "NORAD_CAT_ID": 50032, "ELEMENT_SET_NO": 999, "REV_AT_EPOCH": 22668, "BSTAR": 9.2296183e-05, "MEAN_MOTION_DOT": 4.522e-05, "MEAN_MOTION_DDOT": 0}, "tle": {"line1": "1 50032U 82092RU  25350.92484818  .00004522  00000+0  92296-4 0  9994", "line2": "2 50032  82.5646  54.2198 0015643 192.7559 167.3297 15.45736909226687"}}, "geometry": {"type": "Point", "coordinates": [51.6972298806175, -15.39641150517064]}}, {"type": "Feature", "properties": {"norad_id": 50058, "name": "COSMOS 1408 DEB", "group": "cosmos-1408-debris", "lat": 44.264079777296445, "lon": -122.77456547861235, "alt_km": 364.65276245652876, "timestamp": "2025-12-17T09:00:17.418871+00:00", "meta": {"OBJECT_NAME": "COSMOS 1408 DEB", "OBJECT_ID": "1982-092SW", "EPOCH": "2025-12-16T17:04:42.251232", "MEAN_MOTION": 15.64344337, "ECCENTRICITY": 0.00162374, "INCLINATION": 82.6133, "RA_OF_ASC_NODE": 65.1844, "ARG_OF_PERICENTER": 85.3416, "MEAN_ANOMALY": 274.9697, "EPHEMERIS_TYPE": 0, "CLASSIFICATION_TYPE": "U", "NORAD_CAT_ID": 50058, "ELEMENT_SET_NO": 999, "REV_AT_EPOCH": 22866, "BSTAR": 0.00028122875, "MEAN_MOTION_DOT": 0.00027129, "MEAN_MOTION_DDOT": 0}, "tle": {"line1": "1 50058U 82092SW  25350.71160013  .00027129  00000+0  28123-3 0  9992", "line2": "2 50058  82.6133  65.1844 0016237  85.3416 274.9697 15.64344337228665"}}, "geometry": {"type": "Point", "coordinates": [-122.77456547861235, 44.264079777296445]}}, {"type": "Feature", "properties": {"norad_id": 50404, "name": "COSMOS 1408 DEB", "group": "cosmos-1408-debris", "lat": 49.845855562042956, "lon": 20.939076332657763, "alt_km": 446.95761186491836, "timestamp": "2025-12-17T09:00:17.418884+00:00", "meta": {"OBJECT_NAME": "COSMOS 1408 DEB", "OBJECT_ID": "1982-092ADS", "EPOCH": "2025-12-16T14:59:04.057728", "MEAN_MOTION": 15.1439796, "ECCENTRICITY": 0.01703279, "INCLINATION": 82.2039, "RA_OF_ASC_NODE": 211.0543, "ARG_OF_PERICENTER": 185.5733, "MEAN_ANOMALY": 174.3611, "EPHEMERIS_TYPE": 0, "CLASSIFICATION_TYPE": "U", "NORAD_CAT_ID": 50404, "ELEMENT_SET_NO": 999, "REV_AT_EPOCH": 21252, "BSTAR": 0.0026122531, "MEAN_MOTION_DOT": 0.00069635, "MEAN_MOTION_DDOT": 0}, "tle": {"line1": "1 50404U 82092ADS 25350.62435252  .00069635  00000+0  26123-2 0  9992", "line2": "2 50404  82.2039 211.0543 0170327 185.5733 174.3611 15.14397960212527"}}, "geometry": {"type": "Point", "coordinates": [20.939076332657763, 49.845855562042956]}}, {"type": "Feature", "properties": {"norad_id": 50621, "name": "COSMOS 1408 DEB", "group": "cosmos-1408-debris", "lat": 26.404051733454022, "lon": 73.06927234620497, "alt_km": 402.04842757335064, "timestamp": "2025-12-17T09:00:17.418905+00:00", "meta": {"OBJECT_NAME": "COSMOS 1408 DEB", "OBJECT_ID": "1982-092ALR", "EPOCH": "2025-12-16T20:32:59.843616", "MEAN_MOTION": 15.56878541, "ECCENTRICITY": 0.00289885, "INCLINATION": 82.5705, "RA_OF_ASC_NODE": 69.8949, "ARG_OF_PERICENTER": 137.3743, "MEAN_ANOMALY": 222.9769, "EPHEMERIS_TYPE": 0, "CLASSIFICATION_TYPE": "U", "NORAD_CAT_ID": 50621, "ELEMENT_SET_NO": 999, "REV_AT_EPOCH": 22314, "BSTAR": 0.00031797579, "MEAN_MOTION_DOT": 0.00023354, "MEAN_MOTION_DDOT": 0}, "tle": {"line1": "1 50621U 82092ALR 25350.85624819  .00023354  00000+0  31798-3 0  9990", "line2": "2 50621  82.5705  69.8949 0028988 137.3743 222.9769 15.56878541223140"}}, "geometry": {"type": "Point", "coordinates": [73.06927234620497, 26.404051733454022]}}]}